OBJECT_NAME,OBJECT_ID,EPOCH,MEAN_MOTION,ECCENTRICITY,INCLINATION,RA_OF_ASC_NODE,ARG_OF_PERICENTER,MEAN_ANOMALY,EPHEMERIS_TYPE,CLASSIFICATION_TYPE,NORAD_CAT_ID,ELEMENT_SET_NO,REV_AT_EPOCH,BSTAR,MEAN_MOTION_DOT,MEAN_MOTION_DDOT
COSMOS 2531 (RODNIK-S 17),2018-097B,2026-06-06T22:25:50.284128,12.42912844,.00179262,82.5189,229.6978,79.4005,280.9093,0,U,43752,999,34103,.25261024E-3,.45E-6,0
COSMOS 2532 (RODNIK-S 18),2018-097C,2026-06-06T23:06:31.192128,12.42909466,.00193243,82.5133,228.4711,81.2280,279.0987,0,U,43753,999,34100,-.43774634E-4,.4E-7,0
MINXSS-2,2018-099A,2026-06-06T22:24:21.946176,15.46215535,.00060224,97.4534,233.9234,299.4963,60.5685,0,U,43758,999,41254,.76631194E-3,.37719E-3,0
SIRION PATHFINDER-2,2018-099B,2026-06-05T02:10:49.948032,15.14436976,.0008178,97.4254,205.4362,352.2997,7.8108,0,U,43759,999,41079,.30112E-3,.5474E-4,0
AISTECHSAT 2,2018-099L,2026-06-06T15:44:41.301312,15.15342884,.00040752,97.4295,205.9212,357.3956,2.7255,0,U,43768,999,41068,.32339757E-3,.6033E-4,0
FOX-1CLIFF (AO-95),2018-099N,2026-06-06T03:09:03.946752,15.26474352,.00091754,97.4387,217.4205,36.3927,323.7934,0,U,43770,999,41153,.62214936E-3,.16192E-3,0
RANGE-A,2018-099R,2026-06-06T22:18:13.052736,15.13300859,.00109362,97.3970,200.8090,31.6036,328.5850,0,U,43773,999,41094,.33051841E-3,.5829E-4,0
SNUSAT-2,2018-099AA,2026-06-06T14:45:52.482528,15.21679914,.00093914,97.4065,211.1622,341.3122,18.7768,0,U,43782,999,41142,.4347763E-3,.9781E-4,0
SNUGLITE,2018-099AC,2026-06-06T22:06:53.792352,15.26953196,.00019293,97.3871,212.3040,359.1575,0.9660,0,U,43784,999,41175,.5007445E-3,.13189E-3,0
ITASAT,2018-099AE,2026-06-06T22:37:37.422336,15.18928308,.00132032,97.4030,209.6599,35.5041,324.7070,0,U,43786,999,41135,.39461316E-3,.8194E-4,0
EAGLET-I,2018-099AJ,2026-06-06T14:27:51.903648,15.12861242,.00117683,97.4235,207.5520,30.5570,329.6344,0,U,43790,999,41073,.29754027E-3,.5177E-4,0
ESEO,2018-099AL,2026-06-06T16:04:46.712640,15.04207803,.00123991,97.3966,195.5086,16.3590,343.8035,0,U,43792,999,41022,.10910939E-3,.146E-4,0
THEA,2018-099AQ,2026-06-06T15:22:15.629088,15.34657635,.00060376,97.4441,227.2324,329.5658,30.5233,0,U,43796,999,41107,.5734979E-3,.19217E-3,0
ASTROCAST 0.1,2018-099AS,2026-06-06T22:14:30.329088,15.48857468,.0004324,97.4377,236.1091,243.0314,117.0495,0,U,43798,999,41284,.70650632E-3,.38086E-3,0
JY1SAT (JO-97),2018-099AX,2026-06-06T15:43:35.945760,15.33317250,.0004135,97.4134,220.4567,314.5022,45.5881,0,U,43803,999,41201,.63442715E-3,.20383E-3,0
SUOMI-100,2018-099AY,2026-06-06T15:57:26.886528,15.28178581,.00087159,97.4186,218.0992,323.3067,36.7575,0,U,43804,999,41181,.50907998E-3,.13933E-3,0
CENTAURI-1,2018-099BD,2026-06-06T20:17:25.604736,15.16260717,.00141698,97.4222,209.7877,10.8929,349.2608,0,U,43809,999,41093,.31702999E-3,.6084E-4,0
GLOBAL-2,2018-099BG,2026-06-06T14:17:04.692480,15.08607715,.00059749,97.3556,194.5492,175.8804,184.2475,0,U,43812,999,41031,.26996923E-3,.4164E-4,0
SEAHAWK-1,2018-099BQ,2026-06-06T14:55:46.996608,15.22635240,.00077474,97.3959,210.2698,358.0918,2.0288,0,U,43820,999,41092,.47286964E-3,.10946E-3,0
SAUDISAT 5A,2018-102A,2026-06-06T22:46:13.970784,15.27941454,.00102241,97.3068,219.7276,161.3529,198.8088,0,U,43831,999,41411,.22733905E-3,.6134E-4,0
SAUDISAT 5B,2018-102C,2026-06-06T23:15:52.329888,15.28203993,.00108538,97.3175,222.7989,164.0261,196.1323,0,U,43833,999,41423,.21547805E-3,.5858E-4,0
ISAT,2018-111D,2026-06-06T14:35:18.710016,15.63421581,.0002662,97.5887,92.0294,48.8199,311.3288,0,U,43879,999,40951,.11444E-2,.106545E-2,0
UWE-4,2018-111E,2026-06-06T14:22:20.601984,15.45454015,.000755,97.5857,85.5068,22.5436,337.6143,0,U,43880,999,40914,.86289E-3,.41427E-3,0
D-STAR ONE (SPARROW),2018-111F,2026-06-06T13:41:33.897408,15.71444516,.0004926,97.6123,97.4260,98.9379,261.2441,0,U,43881,999,40970,.13117E-2,.170212E-2,0
JILIN-1 09,2019-005B,2026-06-06T21:55:25.525632,15.20424764,.00037046,97.4730,252.9650,115.0373,245.1247,0,U,43943,999,40758,.2431187E-3,.5233E-4,0
JILIN-1 10,2019-005E,2026-06-06T23:03:15.458976,15.25612653,.00069425,97.4774,256.7664,323.0155,37.0604,0,U,43946,999,40775,.27100734E-3,.6819E-4,0
EGYPTSAT-A (MISRSAT-A),2019-008A,2026-06-06T22:46:30.793728,14.72294591,.00012478,98.0088,222.8527,85.3449,274.7901,0,U,44047,999,39173,.75131996E-4,.425E-5,0
EMISAT,2019-018A,2026-06-06T22:56:50.015616,14.43682480,.00172822,98.4644,216.8121,247.5069,112.4292,0,U,44078,999,37858,.80743155E-4,.23E-5,0
