COSMOS 2531 (RODNIK-S *)
1 43752U 18097B   26157.93460977  .00000045  00000+0  25261-3 0  9999
2 43752  82.5189 229.6978 0017926  79.4005 280.9093 12.42912844341038
COSMOS 2532 (RODNIK-S *)
1 43753U 18097C   26157.96286102  .00000004  00000+0 -43775-4 0  9996
2 43753  82.5133 228.4711 0019324  81.2280 279.0987 12.42909466341004
MINXSS-2                
1 43758U 18099A   26157.93358734  .00037719  00000+0  76631-3 0  9999
2 43758  97.4534 233.9234 0006022 299.4963  60.5685 15.46215535412542
SIRION PATHFINDER-2     
1 43759U 18099B   26156.09085588  .00005474  00000+0  30112-3 0  9997
2 43759  97.4254 205.4362 0008178 352.2997   7.8108 15.14436976410795
AISTECHSAT 2            
1 43768U 18099L   26157.65603358  .00006033  00000+0  32340-3 0  9998
2 43768  97.4295 205.9212 0004075 357.3956   2.7255 15.15342884410682
FOX-1CLIFF (AO-95)      
1 43770U 18099N   26157.13129568  .00016192  00000+0  62215-3 0  9991
2 43770  97.4387 217.4205 0009175  36.3927 323.7934 15.26474352411538
RANGE-A                 
1 43773U 18099R   26157.92931774  .00005829  00000+0  33052-3 0  9993
2 43773  97.3970 200.8090 0010936  31.6036 328.5850 15.13300859410942
SNUSAT-2                
1 43782U 18099AA  26157.61519077  .00009781  00000+0  43478-3 0  9991
2 43782  97.4065 211.1622 0009391 341.3122  18.7768 15.21679914411424
SNUGLITE                
1 43784U 18099AC  26157.92145593  .00013189  00000+0  50074-3 0  9992
2 43784  97.3871 212.3040 0001929 359.1575   0.9660 15.26953196411757
ITASAT                  
1 43786U 18099AE  26157.94279424  .00008194  00000+0  39461-3 0  9994
2 43786  97.4030 209.6599 0013203  35.5041 324.7070 15.18928308411352
EAGLET-I                
1 43790U 18099AJ  26157.60268407  .00005177  00000+0  29754-3 0  9993
2 43790  97.4235 207.5520 0011768  30.5570 329.6344 15.12861242410737
ESEO                    
1 43792U 18099AL  26157.66998510  .00001460  00000+0  10911-3 0  9992
2 43792  97.3966 195.5086 0012399  16.3590 343.8035 15.04207803410224
THEA                    
1 43796U 18099AQ  26157.64045867  .00019217  00000+0  57350-3 0  9999
2 43796  97.4441 227.2324 0006037 329.5658  30.5233 15.34657635411070
ASTROCAST 0.1           
1 43798U 18099AS  26157.92673992  .00038086  00000+0  70651-3 0  9992
2 43798  97.4377 236.1091 0004324 243.0314 117.0495 15.48857468412844
JY1SAT (JO-97)          
1 43803U 18099AX  26157.65527715  .00020383  00000+0  63443-3 0  9992
2 43803  97.4134 220.4567 0004135 314.5022  45.5881 15.33317250412013
SUOMI-100               
1 43804U 18099AY  26157.66489452  .00013933  00000+0  50908-3 0  9994
2 43804  97.4186 218.0992 0008715 323.3067  36.7575 15.28178581411816
CENTAURI-1              
1 43809U 18099BD  26157.84543524  .00006084  00000+0  31703-3 0  9991
2 43809  97.4222 209.7877 0014169  10.8929 349.2608 15.16260717410937
GLOBAL-2                
1 43812U 18099BG  26157.59519320  .00004164  00000+0  26997-3 0  9990
2 43812  97.3556 194.5492 0005974 175.8804 184.2475 15.08607715410317
SEAHAWK-1               
1 43820U 18099BQ  26157.62207172  .00010946  00000+0  47287-3 0  9992
2 43820  97.3959 210.2698 0007747 358.0918   2.0288 15.22635240410924
SAUDISAT 5A             
1 43831U 18102A   26157.94877281  .00006134  00000+0  22734-3 0  9992
2 43831  97.3068 219.7276 0010224 161.3529 198.8088 15.27941454414119
SAUDISAT 5B             
1 43833U 18102C   26157.96935567  .00005858  00000+0  21548-3 0  9992
2 43833  97.3175 222.7989 0010853 164.0261 196.1323 15.28203993414232
ISAT                    
1 43879U 18111D   26157.60785544  .00106545  00000+0  11444-2 0  9999
2 43879  97.5887  92.0294 0002662  48.8199 311.3288 15.63421581409519
UWE-4                   
1 43880U 18111E   26157.59884956  .00041427  00000+0  86289-3 0  9993
2 43880  97.5857  85.5068 0007550  22.5436 337.6143 15.45454015409146
D-STAR ONE (SPARROW)    
1 43881U 18111F   26157.57053122  .00170212  00000+0  13117-2 0  9999
2 43881  97.6123  97.4260 0004926  98.9379 261.2441 15.71444516409706
JILIN-1 09              
1 43943U 19005B   26157.91348988  .00005233  00000+0  24312-3 0  9996
2 43943  97.4730 252.9650 0003704 115.0373 245.1247 15.20424764407582
JILIN-1 10              
1 43946U 19005E   26157.96059559  .00006819  00000+0  27101-3 0  9997
2 43946  97.4774 256.7664 0006942 323.0155  37.0604 15.25612653407751
EGYPTSAT-A (MISRSAT-A)  
1 44047U 19008A   26157.94896752  .00000425  00000+0  75132-4 0  9990
2 44047  98.0088 222.8527 0001247  85.3449 274.7901 14.72294591391736
EMISAT                  
1 44078U 19018A   26157.95613444  .00000230  00000+0  80743-4 0  9999
2 44078  98.4644 216.8121 0017282 247.5069 112.4292 14.43682480378586
